IRIDIUM 71 [-]          
1 25320U 98026B   18065.58319840  .00000095  00000-0  24149-4 0  9993
2 25320  86.3983 131.1634 0002564 144.4976 215.6394 14.39135912 41207
IRIDIUM 70 [+]          
1 25342U 98032A   18065.53684011  .00000065  00000-0  16069-4 0  9993
2 25342  86.3947 114.6683 0002100  97.3907 262.7527 14.34221373 36709
IRIDIUM 72 [+]          
1 25343U 98032B   18065.52415381  .00000096  00000-0  27060-4 0  9992
2 25343  86.3941 114.2679 0002198  96.6183 263.5263 14.34221567 36701
IRIDIUM 73 [-]          
1 25344U 98032C   18064.65087165  .00000104  00000-0  22068-4 0  9994
2 25344  86.4384  92.4811 0001663  91.2302 268.9093 14.49098557 45414
IRIDIUM 75 [+]          
1 25346U 98032E   18065.53049708  .00000080  00000-0  21531-4 0  9992
2 25346  86.3945 114.5270 0002211  95.8638 264.2810 14.34221451 37271
IRIDIUM 76 [+]          
1 25432U 98048B   18065.32468742  .00000164  00000-0  51385-4 0  9998
2 25432  86.3992 145.9440 0002055  95.4222 264.7209 14.34225564 23166
IRIDIUM 82 [-]          
1 25467U 98051A   18065.54677071  .00000888  00000-0  64661-4 0  9995
2 25467  86.3968 260.7860 0181996 175.1853 185.1182 14.89757936 25898
IRIDIUM 81 [+]          
1 25468U 98051B   18065.19124985  .00000012  00000-0 -25312-5 0  9999
2 25468  86.4195 272.2952 0001997  78.5062 281.6361 14.38609487 20518
IRIDIUM 80 [+]          
1 25469U 98051C   18065.57665497 -.00000053  00000-0 -25885-4 0  9990
2 25469  86.3924 272.3857 0002429  96.3696 315.5068 14.34217498 20441
IRIDIUM 2 [-]           
1 25527U 98066A   18065.54594194  .00001125  00000-0  54685-4 0  9992
2 25527  85.5282 237.2830 0008212 191.7347 168.3703 15.17217894 57648
IRIDIUM 86 [+]          
1 25528U 98066B   18065.02412049 -.00000073  00000-0 -33060-4 0  9991
2 25528  86.3932 240.2861 0001831 117.4655 242.6727 14.34214755 16890
IRIDIUM 84 [+]          
1 25530U 98066D   18065.54421641 -.00000071  00000-0 -32456-4 0  9995
2 25530  86.3933 240.2378 0001940  87.2865 272.8552 14.34214596 14606
IRIDIUM 83 [+]          
1 25531U 98066E   18065.50619226 -.00000061  00000-0 -28940-4 0  9992
2 25531  86.3936 240.3900 0002016  87.1644 272.9782 14.34213541 11951
IRIDIUM 20 [+]          
1 25577U 98074A   18065.35638393  .00000171  00000-0  54072-4 0  9995
2 25577  86.3991 145.8491 0002188  99.2085 260.9359 14.34215851  6013
IRIDIUM 11 [+]          
1 25578U 98074B   18065.32528694  .00000165  00000-0  51945-4 0  9994
2 25578  86.3999 146.0770 0002017  79.7853 348.0875 14.34216774 14972
IRIDIUM 14 [+]          
1 25777U 99032A   18065.54952289  .00000081  00000-0  21833-4 0  9995
2 25777  86.3942 114.3462 0002149  97.8621 262.2819 14.34221638992286
IRIDIUM 21 [+]          
1 25778U 99032B   18065.51781158  .00000074  00000-0  19433-4 0  9993
2 25778  86.3941 114.3747 0002206  92.0794 268.0655 14.34221522985718
IRIDIUM 91 [+]          
1 27372U 02005A   18065.34715935  .00000160  00000-0  50115-4 0  9998
2 27372  86.4021 177.6184 0001710 101.1509 258.9879 14.34214535849207
IRIDIUM 90 [B]          
1 27373U 02005B   18065.52904510  .00000084  00000-0  19194-4 0  9995
2 27373  86.4451 240.3752 0002110  83.5999 276.5442 14.42873214849188
IRIDIUM 94 [P]          
1 27374U 02005C   18065.53762992  .00000298  00000-0  45926-4 0  9992
2 27374  86.3889 146.0411 0120361 352.0689   7.8616 14.64733350853550
IRIDIUM 95 [+]          
1 27375U 02005D   18065.45505053  .00000164  00000-0  51576-4 0  9997
2 27375  86.4018 177.5858 0001632  77.3915 282.7463 14.34218004848502
IRIDIUM 96 [P]          
1 27376U 02005E   18065.48189521  .00027664 -78486-6  31620-3 0  9990
2 27376  86.3851 204.9506 0312911 241.4164 115.5268 15.20226878854335
IRIDIUM 97 [+]          
1 27450U 02031A   18064.79862730  .00000064  00000-0  15922-4 0  9998
2 27450  86.3991 209.5410 0002005  86.5340 273.6086 14.34256285827728
IRIDIUM 98 [+]          
1 27451U 02031B   18065.50320298 -.00000063  00000-0 -29394-4 0  9996
2 27451  86.3917 272.4952 0001865  97.7235 262.4173 14.34217376828909
